COSMOS 2433 (720)       
1 32275U 07052A   25143.43145098 -.00000028  00000+0  00000+0 0  9991
2 32275  65.7885 329.0219 0001228 197.0451 162.9725  2.13104008136793
COSMOS 2432 (719)       
1 32276U 07052B   25143.50022524 -.00000029  00000+0  00000+0 0  9999
2 32276  65.8040 329.1398 0008661 336.9245  21.0347  2.13103101136787
COSMOS 2434 (721)       
1 32393U 07065A   25143.21860381  .00000063  00000+0  00000+0 0  9999
2 32393  64.3143 205.0731 0000752  39.6241  48.5719  2.13101326135495
COSMOS 2436 (723)       
1 32395U 07065C   25143.49892657  .00000066  00000+0  00000+0 0  9995
2 32395  64.3228 205.1317 0016583 355.9344  81.2830  2.13100207135416
COSMOS 2456 (730)       
1 36111U 09070A   25142.60229198  .00000007  00000+0  00000+0 0  9994
2 36111  64.7850  84.3199 0005602 318.5135 172.6214  2.13103624120140
COSMOS 2457 (733)       
1 36112U 09070B   25143.01464145  .00000002  00000+0  00000+0 0  9999
2 36112  64.7702  84.1573 0001973 159.1070  59.3851  2.13101093120152
COSMOS 2460 (732)       
1 36402U 10007C   25142.97753046 -.00000025  00000+0  00000+0 0  9994
2 36402  65.6387 327.6420 0002154  78.0451 108.4452  2.13106140118500
COSMOS 2476 (744)       
1 37867U 11064A   25142.31711968  .00000014  00000+0  00000+0 0  9996
2 37867  65.0510  86.0895 0023304 241.0714 301.3526  2.13101452105439
COSMOS 2477 (745)       
1 37868U 11064B   25143.48875704  .00000001  00000+0  00000+0 0  9991
2 37868  65.0584  86.1255 0020459 242.6398 298.4748  2.13102952105444
COSMOS 2475 (743)       
1 37869U 11064C   25143.57154119  .00000000  00000+0  00000+0 0  9991
2 37869  65.0653  86.1408 0026038 255.6640 305.8086  2.13101756105455
COSMOS 2485 (747)       
1 39155U 13019A   25141.54932728  .00000024  00000+0  00000+0 0  9994
2 39155  65.2050  86.7695 0023627 236.9254 122.8336  2.13104487 93934
COSMOS 2492 (754)       
1 39620U 14012A   25142.91425021 -.00000025  00000+0  00000+0 0  9992
2 39620  65.5180 327.1716 0011346 329.4405  30.5135  2.13103130 86922
COSMOS 2500 (755)       
1 40001U 14032A   25143.08910791 -.00000026  00000+0  00000+0 0  9992
2 40001  65.4541 326.9440 0006015 183.4794 176.5358  2.13105915 85148
COSMOS 2501 (702K)      
1 40315U 14075A   25143.34622784  .00000067  00000+0  00000+0 0  9992
2 40315  63.6142 203.8705 0021414 210.5167 149.4362  2.13101354 81543
COSMOS 2514 (751)       
1 41330U 16008A   25142.39127605 -.00000023  00000+0  00000+0 0  9997
2 41330  65.2465 326.3911 0009570 199.2891 160.6946  2.13102558 72295
COSMOS 2522 (752)       
1 42939U 17055A   25142.23025576  .00000054  00000+0  00000+0 0  9996
2 42939  64.0758 205.1948 0009734 238.7809 121.1969  2.13101789 59643
COSMOS 2527 (756)       
1 43508U 18053A   25142.19020770  .00000018  00000+0  00000+0 0  9994
2 43508  65.3640  86.9704 0008236 244.9002 114.9978  2.13102129 53941
COSMOS 2529 (757)       
1 43687U 18086A   25142.28837323  .00000054  00000+0  00000+0 0  9998
2 43687  64.2916 205.7970 0010956 257.3744 102.5761  2.13101988 50955
COSMOS 2534 (758)       
1 44299U 19030A   25142.22614839  .00000053  00000+0  00000+0 0  9996
2 44299  64.3649 205.7844 0012565 277.9259 168.6223  2.13102220 46597
COSMOS 2544 (759)       
1 44850U 19088A   25142.13457463  .00000019  00000+0  00000+0 0  9992
2 44850  65.3513  86.8029 0014212 261.9465  97.8761  2.13101903 42387
COSMOS 2545 (760)       
1 45358U 20018A   25141.86188169 -.00000022  00000+0  00000+0 0  9999
2 45358  64.5844 326.1431 0007338 238.0148 121.9337  2.13102466 40325
COSMOS 2547 (705K)      
1 46805U 20075A   25143.45580336  .00000065  00000+0  00000+0 0  9995
2 46805  64.5950 205.4857 0008549 239.1876 120.8054  2.13100306 35607
COSMOS 2557 (706K)      
1 52984U 22075A   25143.15336819 -.00000030  00000+0  00000+0 0  9997
2 52984  64.5195 328.1971 0010469 281.0391  78.8636  2.13101993 22398
COSMOS 2559 (707K)      
1 54031U 22130A   25142.50277054 -.00000026  00000+0  00000+0 0  9992
2 54031  64.4920 328.3164 0011385 176.0687 183.9622  2.13101409 20352
COSMOS 2564 (761)       
1 54377U 22161A   25142.34775994  .00000054  00000+0  00000+0 0  9997
2 54377  64.7366 205.6885 0011149 222.0956 137.8919  2.13102032 19301
COSMOS 2569 (703K)      
1 57517U 23114A   25142.36238459  .00000013  00000+0  00000+0 0  9992
2 57517  65.0829  85.8226 0012027 297.0514  62.8091  2.13103645 13935
COSMOS 2584 (704K)      
1 63130U 25042A   25143.18739383  .00000004  00000+0  00000+0 0  9995
2 63130  64.8648  86.0827 0006787 233.4154 126.5019  2.13103701  1735
